<?xml version="1.0" encoding="UTF-8"?>
<ndm xmlns:xsi="http://www.w3.org/2001/XMLSchema-instance" xsi:noNamespaceSchemaLocation="https://sanaregistry.org/r/ndmxml_unqualified/ndmxml-2.0.0-master-2.0.xsd">
<omm id="CCSDS_OMM_VERS" version="2.0">
<header><CREATION_DATE/><ORIGINATOR/></header><body><segment><metadata><OBJECT_NAME>ORBCOMM FM24</OBJECT_NAME><OBJECT_ID>1998-053D</OBJECT_ID><CENTER_NAME>EARTH</CENTER_NAME><REF_FRAME>TEME</REF_FRAME><TIME_SYSTEM>UTC</TIME_SYSTEM><MEAN_ELEMENT_THEORY>SGP4</MEAN_ELEMENT_THEORY></metadata><data><meanElements><EPOCH>2025-01-23T22:07:58.494720</EPOCH><MEAN_MOTION>14.37415751</MEAN_MOTION><ECCENTRICITY>.0001795</ECCENTRICITY><INCLINATION>45.0058</INCLINATION><RA_OF_ASC_NODE>232.8097</RA_OF_ASC_NODE><ARG_OF_PERICENTER>197.2224</ARG_OF_PERICENTER><MEAN_ANOMALY>162.8564</MEAN_ANOMALY></meanElements><tleParameters><EPHEMERIS_TYPE>0</EPHEMERIS_TYPE><CLASSIFICATION_TYPE>U</CLASSIFICATION_TYPE><NORAD_CAT_ID>25478</NORAD_CAT_ID><ELEMENT_SET_NO>999</ELEMENT_SET_NO><REV_AT_EPOCH>37668</REV_AT_EPOCH><BSTAR>.82284E-3</BSTAR><MEAN_MOTION_DOT>.2341E-4</MEAN_MOTION_DOT><MEAN_MOTION_DDOT>0</MEAN_MOTION_DDOT></tleParameters></data></segment></body></omm>
<omm id="CCSDS_OMM_VERS" version="2.0">
<header><CREATION_DATE/><ORIGINATOR/></header><body><segment><metadata><OBJECT_NAME>ORBCOMM FM25</OBJECT_NAME><OBJECT_ID>1998-053E</OBJECT_ID><CENTER_NAME>EARTH</CENTER_NAME><REF_FRAME>TEME</REF_FRAME><TIME_SYSTEM>UTC</TIME_SYSTEM><MEAN_ELEMENT_THEORY>SGP4</MEAN_ELEMENT_THEORY></metadata><data><meanElements><EPOCH>2025-01-23T21:23:27.078432</EPOCH><MEAN_MOTION>14.37404390</MEAN_MOTION><ECCENTRICITY>.0003841</ECCENTRICITY><INCLINATION>45.0049</INCLINATION><RA_OF_ASC_NODE>231.2115</RA_OF_ASC_NODE><ARG_OF_PERICENTER>229.3109</ARG_OF_PERICENTER><MEAN_ANOMALY>130.7405</MEAN_ANOMALY></meanElements><tleParameters><EPHEMERIS_TYPE>0</EPHEMERIS_TYPE><CLASSIFICATION_TYPE>U</CLASSIFICATION_TYPE><NORAD_CAT_ID>25479</NORAD_CAT_ID><ELEMENT_SET_NO>999</ELEMENT_SET_NO><REV_AT_EPOCH>37697</REV_AT_EPOCH><BSTAR>.90961E-3</BSTAR><MEAN_MOTION_DOT>.2602E-4</MEAN_MOTION_DOT><MEAN_MOTION_DDOT>0</MEAN_MOTION_DDOT></tleParameters></data></segment></body></omm>
<omm id="CCSDS_OMM_VERS" version="2.0">
<header><CREATION_DATE/><ORIGINATOR/></header><body><segment><metadata><OBJECT_NAME>ORBCOMM FM26</OBJECT_NAME><OBJECT_ID>1998-053F</OBJECT_ID><CENTER_NAME>EARTH</CENTER_NAME><REF_FRAME>TEME</REF_FRAME><TIME_SYSTEM>UTC</TIME_SYSTEM><MEAN_ELEMENT_THEORY>SGP4</MEAN_ELEMENT_THEORY></metadata><data><meanElements><EPOCH>2025-01-23T22:50:19.642272</EPOCH><MEAN_MOTION>14.36565502</MEAN_MOTION><ECCENTRICITY>.0005484</ECCENTRICITY><INCLINATION>45.0045</INCLINATION><RA_OF_ASC_NODE>226.3934</RA_OF_ASC_NODE><ARG_OF_PERICENTER>255.6043</ARG_OF_PERICENTER><MEAN_ANOMALY>104.4196</MEAN_ANOMALY></meanElements><tleParameters><EPHEMERIS_TYPE>0</EPHEMERIS_TYPE><CLASSIFICATION_TYPE>U</CLASSIFICATION_TYPE><NORAD_CAT_ID>25480</NORAD_CAT_ID><ELEMENT_SET_NO>999</ELEMENT_SET_NO><REV_AT_EPOCH>37690</REV_AT_EPOCH><BSTAR>.80619E-3</BSTAR><MEAN_MOTION_DOT>.225E-4</MEAN_MOTION_DOT><MEAN_MOTION_DDOT>0</MEAN_MOTION_DDOT></tleParameters></data></segment></body></omm>
<omm id="CCSDS_OMM_VERS" version="2.0">
<header><CREATION_DATE/><ORIGINATOR/></header><body><segment><metadata><OBJECT_NAME>ORBCOMM FM27</OBJECT_NAME><OBJECT_ID>1998-053G</OBJECT_ID><CENTER_NAME>EARTH</CENTER_NAME><REF_FRAME>TEME</REF_FRAME><TIME_SYSTEM>UTC</TIME_SYSTEM><MEAN_ELEMENT_THEORY>SGP4</MEAN_ELEMENT_THEORY></metadata><data><meanElements><EPOCH>2025-01-23T22:48:27.321408</EPOCH><MEAN_MOTION>14.37412231</MEAN_MOTION><ECCENTRICITY>.0000753</ECCENTRICITY><INCLINATION>45.0034</INCLINATION><RA_OF_ASC_NODE>231.1757</RA_OF_ASC_NODE><ARG_OF_PERICENTER>143.4757</ARG_OF_PERICENTER><MEAN_ANOMALY>216.6142</MEAN_ANOMALY></meanElements><tleParameters><EPHEMERIS_TYPE>0</EPHEMERIS_TYPE><CLASSIFICATION_TYPE>U</CLASSIFICATION_TYPE><NORAD_CAT_ID>25481</NORAD_CAT_ID><ELEMENT_SET_NO>999</ELEMENT_SET_NO><REV_AT_EPOCH>37691</REV_AT_EPOCH><BSTAR>.97788E-3</BSTAR><MEAN_MOTION_DOT>.2809E-4</MEAN_MOTION_DOT><MEAN_MOTION_DDOT>0</MEAN_MOTION_DDOT></tleParameters></data></segment></body></omm>
<omm id="CCSDS_OMM_VERS" version="2.0">
<header><CREATION_DATE/><ORIGINATOR/></header><body><segment><metadata><OBJECT_NAME>ORBCOMM FM28</OBJECT_NAME><OBJECT_ID>1998-053H</OBJECT_ID><CENTER_NAME>EARTH</CENTER_NAME><REF_FRAME>TEME</REF_FRAME><TIME_SYSTEM>UTC</TIME_SYSTEM><MEAN_ELEMENT_THEORY>SGP4</MEAN_ELEMENT_THEORY></metadata><data><meanElements><EPOCH>2025-01-23T20:55:02.505792</EPOCH><MEAN_MOTION>14.37679358</MEAN_MOTION><ECCENTRICITY>.0004321</ECCENTRICITY><INCLINATION>45.0035</INCLINATION><RA_OF_ASC_NODE>169.2953</RA_OF_ASC_NODE><ARG_OF_PERICENTER>271.7689</ARG_OF_PERICENTER><MEAN_ANOMALY>88.2664</MEAN_ANOMALY></meanElements><tleParameters><EPHEMERIS_TYPE>0</EPHEMERIS_TYPE><CLASSIFICATION_TYPE>U</CLASSIFICATION_TYPE><NORAD_CAT_ID>25482</NORAD_CAT_ID><ELEMENT_SET_NO>999</ELEMENT_SET_NO><REV_AT_EPOCH>37758</REV_AT_EPOCH><BSTAR>.10935E-2</BSTAR><MEAN_MOTION_DOT>.3176E-4</MEAN_MOTION_DOT><MEAN_MOTION_DDOT>0</MEAN_MOTION_DDOT></tleParameters></data></segment></body></omm>
<omm id="CCSDS_OMM_VERS" version="2.0">
<header><CREATION_DATE/><ORIGINATOR/></header><body><segment><metadata><OBJECT_NAME>ORBCOMM FM30</OBJECT_NAME><OBJECT_ID>1999-065A</OBJECT_ID><CENTER_NAME>EARTH</CENTER_NAME><REF_FRAME>TEME</REF_FRAME><TIME_SYSTEM>UTC</TIME_SYSTEM><MEAN_ELEMENT_THEORY>SGP4</MEAN_ELEMENT_THEORY></metadata><data><meanElements><EPOCH>2025-01-23T07:57:43.434144</EPOCH><MEAN_MOTION>14.36718356</MEAN_MOTION><ECCENTRICITY>.0006787</ECCENTRICITY><INCLINATION>45.0317</INCLINATION><RA_OF_ASC_NODE>55.0956</RA_OF_ASC_NODE><ARG_OF_PERICENTER>342.2565</ARG_OF_PERICENTER><MEAN_ANOMALY>17.8045</MEAN_ANOMALY></meanElements><tleParameters><EPHEMERIS_TYPE>0</EPHEMERIS_TYPE><CLASSIFICATION_TYPE>U</CLASSIFICATION_TYPE><NORAD_CAT_ID>25980</NORAD_CAT_ID><ELEMENT_SET_NO>999</ELEMENT_SET_NO><REV_AT_EPOCH>31361</REV_AT_EPOCH><BSTAR>.97349E-3</BSTAR><MEAN_MOTION_DOT>.2755E-4</MEAN_MOTION_DOT><MEAN_MOTION_DDOT>0</MEAN_MOTION_DDOT></tleParameters></data></segment></body></omm>
<omm id="CCSDS_OMM_VERS" version="2.0">
<header><CREATION_DATE/><ORIGINATOR/></header><body><segment><metadata><OBJECT_NAME>ORBCOMM FM31</OBJECT_NAME><OBJECT_ID>1999-065B</OBJECT_ID><CENTER_NAME>EARTH</CENTER_NAME><REF_FRAME>TEME</REF_FRAME><TIME_SYSTEM>UTC</TIME_SYSTEM><MEAN_ELEMENT_THEORY>SGP4</MEAN_ELEMENT_THEORY></metadata><data><meanElements><EPOCH>2025-01-24T03:14:11.593824</EPOCH><MEAN_MOTION>14.36694008</MEAN_MOTION><ECCENTRICITY>.0003569</ECCENTRICITY><INCLINATION>45.0231</INCLINATION><RA_OF_ASC_NODE>44.8390</RA_OF_ASC_NODE><ARG_OF_PERICENTER>355.1885</ARG_OF_PERICENTER><MEAN_ANOMALY>4.8928</MEAN_ANOMALY></meanElements><tleParameters><EPHEMERIS_TYPE>0</EPHEMERIS_TYPE><CLASSIFICATION_TYPE>U</CLASSIFICATION_TYPE><NORAD_CAT_ID>25981</NORAD_CAT_ID><ELEMENT_SET_NO>999</ELEMENT_SET_NO><REV_AT_EPOCH>31425</REV_AT_EPOCH><BSTAR>.97366E-3</BSTAR><MEAN_MOTION_DOT>.2754E-4</MEAN_MOTION_DOT><MEAN_MOTION_DDOT>0</MEAN_MOTION_DDOT></tleParameters></data></segment></body></omm>
<omm id="CCSDS_OMM_VERS" version="2.0">
<header><CREATION_DATE/><ORIGINATOR/></header><body><segment><metadata><OBJECT_NAME>ORBCOMM FM32</OBJECT_NAME><OBJECT_ID>1999-065C</OBJECT_ID><CENTER_NAME>EARTH</CENTER_NAME><REF_FRAME>TEME</REF_FRAME><TIME_SYSTEM>UTC</TIME_SYSTEM><MEAN_ELEMENT_THEORY>SGP4</MEAN_ELEMENT_THEORY></metadata><data><meanElements><EPOCH>2025-01-24T03:42:36.968256</EPOCH><MEAN_MOTION>14.35727089</MEAN_MOTION><ECCENTRICITY>.0005074</ECCENTRICITY><INCLINATION>45.0156</INCLINATION><RA_OF_ASC_NODE>60.3497</RA_OF_ASC_NODE><ARG_OF_PERICENTER>5.4903</ARG_OF_PERICENTER><MEAN_ANOMALY>354.6000</MEAN_ANOMALY></meanElements><tleParameters><EPHEMERIS_TYPE>0</EPHEMERIS_TYPE><CLASSIFICATION_TYPE>U</CLASSIFICATION_TYPE><NORAD_CAT_ID>25982</NORAD_CAT_ID><ELEMENT_SET_NO>999</ELEMENT_SET_NO><REV_AT_EPOCH>31402</REV_AT_EPOCH><BSTAR>.95119E-3</BSTAR><MEAN_MOTION_DOT>.2633E-4</MEAN_MOTION_DOT><MEAN_MOTION_DDOT>0</MEAN_MOTION_DDOT></tleParameters></data></segment></body></omm>

</ndm>
