ORBCOMM FM24            
1 25478U 98053D   25023.92220480  .00002341  00000+0  82284-3 0  9996
2 25478  45.0058 232.8097 0001795 197.2224 162.8564 14.37415751376680
ORBCOMM FM25            
1 25479U 98053E   25023.89128563  .00002602  00000+0  90961-3 0  9993
2 25479  45.0049 231.2115 0003841 229.3109 130.7405 14.37404390376975
ORBCOMM FM26            
1 25480U 98053F   25023.95161623  .00002250  00000+0  80619-3 0  9994
2 25480  45.0045 226.3934 0005484 255.6043 104.4196 14.36565502376901
ORBCOMM FM27            
1 25481U 98053G   25023.95031622  .00002809  00000+0  97788-3 0  9995
2 25481  45.0034 231.1757 0000753 143.4757 216.6142 14.37412231376916
ORBCOMM FM28            
1 25482U 98053H   25023.87155678  .00003176  00000+0  10935-2 0  9991
2 25482  45.0035 169.2953 0004321 271.7689  88.2664 14.37679358377582
ORBCOMM FM30            
1 25980U 99065A   25023.33175271  .00002755  00000+0  97349-3 0  9997
2 25980  45.0317  55.0956 0006787 342.2565  17.8045 14.36718356313614
ORBCOMM FM31            
1 25981U 99065B   25024.13485641  .00002754  00000+0  97366-3 0  9990
2 25981  45.0231  44.8390 0003569 355.1885   4.8928 14.36694008314255
ORBCOMM FM32            
1 25982U 99065C   25024.15459454  .00002633  00000+0  95119-3 0  9996
2 25982  45.0156  60.3497 0005074   5.4903 354.6000 14.35727089314029
